OBJECT_NAME,OBJECT_ID,EPOCH,MEAN_MOTION,ECCENTRICITY,INCLINATION,RA_OF_ASC_NODE,ARG_OF_PERICENTER,MEAN_ANOMALY,EPHEMERIS_TYPE,CLASSIFICATION_TYPE,NORAD_CAT_ID,ELEMENT_SET_NO,REV_AT_EPOCH,BSTAR,MEAN_MOTION_DOT,MEAN_MOTION_DDOT
KUIPER-00593,2026-118M,2026-06-19T23:34:14.588256,15.38112556,.00037101,51.8718,39.6641,165.9112,194.1979,0,U,69278,999,447,.38980532E-3,.14491E-3,0
KUIPER-00594,2026-118N,2026-06-19T23:20:59.052480,15.38732779,.00008467,51.8728,39.6032,80.9987,279.1097,0,U,69279,999,441,.52417776E-3,.20042E-3,0
KUIPER-00595,2026-118P,2026-06-19T23:24:31.731264,15.38569130,.00012611,51.8720,39.6206,154.6645,205.4404,0,U,69280,999,444,.56114422E-3,.21371E-3,0
KUIPER-00596,2026-118Q,2026-06-19T22:51:27.854208,15.34766850,.00124449,51.8562,40.1867,194.9199,165.1421,0,U,69281,999,440,.40507114E-3,.13533E-3,0
KUIPER-00597,2026-118R,2026-06-19T23:52:16.692096,15.37083947,.00069492,51.8650,39.7423,182.1001,177.9958,0,U,69282,999,441,.36014421E-3,.12914E-3,0
KUIPER-00599,2026-118S,2026-06-20T01:20:52.690560,15.37390286,.0005889,51.8695,39.4088,176.7564,183.3462,0,U,69283,999,442,.56599455E-3,.20745E-3,0
KUIPER-00600,2026-118T,2026-06-20T01:32:54.271392,15.36728395,.00085176,51.8642,39.4587,183.2379,176.8554,0,U,69284,999,442,.5477852E-3,.19642E-3,0
KUIPER-00601,2026-118U,2026-06-19T23:41:31.354080,15.37649370,.00049168,51.8707,39.6979,164.4329,195.6810,0,U,69285,999,441,.33454289E-3,.12189E-3,0
KUIPER-00602,2026-118V,2026-06-19T23:31:37.363584,15.38243019,.00027717,51.8708,39.6534,157.5811,202.5297,0,U,69286,999,441,.37798205E-3,.14099E-3,0
KUIPER-00603,2026-118W,2026-06-19T23:43:32.509344,15.37640463,.00052705,51.8677,39.7060,171.6633,188.4442,0,U,69287,999,441,.47587767E-3,.17514E-3,0
KUIPER-00605,2026-118X,2026-06-19T23:53:10.395744,15.37104765,.0007383,51.8662,39.7473,177.8626,182.2393,0,U,69288,999,441,.37935437E-3,.13636E-3,0
KUIPER-00606,2026-118Y,2026-06-20T01:13:06.705984,15.37760304,.00045359,51.8700,39.3740,165.0419,195.0703,0,U,69289,999,442,.54625546E-3,.20247E-3,0
KUIPER-00607,2026-118Z,2026-06-19T23:45:34.996032,15.37506633,.00059682,51.8684,39.7153,172.5107,187.5970,0,U,69290,999,441,.46672923E-3,.17095E-3,0
KUIPER-00608,2026-118AA,2026-06-20T00:15:10.119456,15.35269665,.00083153,51.8610,39.8373,185.9800,174.1088,0,U,69291,999,441,.41307372E-3,.14019E-3,0
KUIPER-00610,2026-118AB,2026-06-19T23:28:30.226368,15.38255226,.000207,51.8728,39.6367,158.5120,201.5954,0,U,69292,999,441,.58454531E-3,.22052E-3,0
KUIPER-00613,2026-118AC,2026-06-20T00:23:36.281760,15.34365948,.00100146,51.8642,39.8800,193.1511,166.9214,0,U,69293,999,441,.1652589E-3,.5212E-4,0
KUIPER-00618,2026-118AD,2026-06-19T23:21:44.109216,15.38721079,.0001532,51.8730,39.6049,97.4662,262.6499,0,U,69294,999,441,.5544671E-3,.21218E-3,0
KUIPER-00620,2026-118AE,2026-06-20T01:00:59.887584,15.38383662,.00026093,51.8724,39.3179,131.0092,229.1121,0,U,69295,999,442,.53915483E-3,.20391E-3,0
STARLINK-37501,2026-119A,2026-06-20T06:00:02.000160,15.49178193,.00015811,97.2855,197.1084,81.9050,273.7501,0,U,69296,999,437,-.71271704E-4,-.3963E-4,0
STARLINK-37496,2026-119B,2026-06-20T06:00:02.000160,15.52146629,.00014788,97.2857,197.1149,58.5532,302.3047,0,U,69297,999,437,-.25748737E-1,-.1396443E-1,0
STARLINK-37519,2026-119C,2026-06-20T06:00:02.000160,15.49177851,.00013803,97.2856,197.1150,58.1494,313.3440,0,U,69298,999,437,-.10787655E-3,-.5951E-4,0
STARLINK-37455,2026-119D,2026-06-20T06:00:02.000160,15.49188312,.00014175,97.2857,197.0255,95.3624,64.1578,0,U,69299,999,437,-.52548883E-4,-.2947E-4,0
STARLINK-37456,2026-119E,2026-06-20T06:00:02.000160,15.49137682,.00017706,97.2850,197.1123,83.0363,274.4899,0,U,69300,999,437,-.744639E-5,-.495E-5,0
STARLINK-37630,2026-119F,2026-06-20T07:38:57.958368,15.49230167,.00001764,97.2853,197.0161,181.5282,178.5969,0,U,69301,999,451,.93056648E-3,.50921E-3,0
STARLINK-37804,2026-119G,2026-06-20T07:40:48.501984,15.49218402,.00008458,97.2853,197.0141,81.4363,278.6984,0,U,69302,999,451,.68028579E-3,.37121E-3,0
STARLINK-37730,2026-119H,2026-06-20T06:00:02.000160,15.54772698,.00020391,97.2846,197.1834,70.7005,94.9858,0,U,69303,999,453,-.42953207E-1,-.2481695E-1,0
STARLINK-37731,2026-119J,2026-06-20T07:42:21.063168,15.49188423,.00041012,97.2855,197.0127,286.3920,73.6881,0,U,69304,999,451,.10627895E-2,.58153E-3,0
STARLINK-37734,2026-119K,2026-06-20T06:00:02.000160,15.49164269,.00008344,97.2857,197.1083,264.8706,92.1814,0,U,69305,999,453,-.22882826E-3,-.12505E-3,0
STARLINK-37701,2026-119L,2026-06-20T06:00:02.000160,15.52416444,.00027727,97.2850,197.1702,66.3959,71.3857,0,U,69306,999,453,-.76550875E-1,-.4056687E-1,0
STARLINK-37732,2026-119M,2026-06-20T06:00:02.000160,15.58743173,.00019783,97.2855,197.2204,94.9616,156.9111,0,U,69307,999,453,-.32716103E-1,-.2226841E-1,0
STARLINK-37689,2026-119N,2026-06-20T07:37:24.964320,15.49204103,.00001424,97.2854,197.0168,21.6256,338.5001,0,U,69308,999,451,.37745379E-3,.20502E-3,0
STARLINK-37619,2026-119P,2026-06-20T06:00:02.000160,15.56826564,.00022455,97.2854,197.2084,87.2808,139.3934,0,U,69309,999,453,-.39905837E-1,-.2487897E-1,0
STARLINK-37794,2026-119Q,2026-06-20T06:00:02.000160,15.49172598,.00007283,97.2855,197.1065,90.0243,261.9742,0,U,69310,999,453,-.62166564E-4,-.3468E-4,0
STARLINK-37795,2026-119R,2026-06-20T00:00:02.000160,15.49132197,.00006072,97.2852,196.7086,69.2788,345.9700,0,U,69311,999,449,.18421271E-2,.101193E-2,0
STARLINK-37790,2026-119S,2026-06-20T06:00:02.000160,15.49489953,.00010865,97.2852,197.1668,73.7038,62.0577,0,U,69312,999,453,-.98915363E-2,-.510001E-2,0
STARLINK-37676,2026-119T,2026-06-20T06:00:02.000160,15.58912058,.00016933,97.2847,197.2420,107.7301,198.3511,0,U,69313,999,453,-.37239607E-1,-.2508248E-1,0
STARLINK-37617,2026-119U,2026-06-20T06:00:02.000160,15.51976177,.00016578,97.2847,197.1747,86.3984,63.7425,0,U,69314,999,453,-.53395027E-1,-.2802429E-1,0
STARLINK-37627,2026-119V,2026-06-20T06:00:02.000160,15.49514775,.0001486,97.2854,197.1792,44.5787,118.5387,0,U,69315,999,453,-.11994759E-1,-.611194E-2,0
STARLINK-37738,2026-119W,2026-06-20T06:00:02.000160,15.54553115,.000171,97.2850,197.1783,64.8099,87.1645,0,U,69316,999,453,-.39566548E-1,-.229345E-1,0
STARLINK-37799,2026-119X,2026-06-20T06:00:02.000160,15.61901572,.00011831,97.2852,197.2589,95.8328,248.2405,0,U,69317,999,448,-.33625387E-1,-.2536547E-1,0
STARLINK-37802,2026-119Y,2026-06-20T06:00:02.000160,15.56890004,.00016238,97.2851,197.2323,94.2780,185.0757,0,U,69318,999,453,-.40031672E-1,-.2499219E-1,0
STARLINK-37803,2026-119Z,2026-06-20T06:00:02.000160,15.49164678,.00011272,97.2853,197.1058,89.7874,257.6897,0,U,69319,999,448,.24822911E-4,.1259E-4,0
GUOWANG TEST OBJECT A,2026-120A,2026-06-07T11:06:12.288672,15.38803685,.00095994,54.9967,71.5399,294.3963,65.6063,0,U,69320,999,119,.24095813E-3,.9002E-4,0
GUOWANG TEST OBJECT B,2026-120B,2026-06-19T23:55:28.572672,15.38773510,.00104755,54.9982,15.0865,337.9211,22.1365,0,U,69321,999,312,.31252363E-3,.11788E-3,0
GUOWANG TEST OBJECT C,2026-120C,2026-06-07T21:56:00.773376,15.39284097,.00098504,54.9968,69.4792,309.3319,50.6835,0,U,69322,999,126,.41735581E-3,.16153E-3,0
GUOWANG TEST OBJECT D,2026-120D,2026-06-19T23:49:23.952576,15.38598047,.00115574,54.9980,15.0602,352.5226,7.5628,0,U,69323,999,312,.47569894E-4,.1448E-4,0
QIANFAN-163,2026-121A,2026-06-20T07:35:38.266368,13.59758617,.00204036,89.0159,300.1998,179.7263,180.3908,0,U,69325,999,258,.29741936E-4,.34E-6,0
QIANFAN-164,2026-121B,2026-06-11T09:53:52.001952,13.60355109,.0019383,89.0157,301.0998,205.3125,154.7084,0,U,69326,999,137,.13228E-3,.112E-5,0
CZ-12B R/B,2026-121C,2026-06-20T07:04:07.970016,14.04085096,.01947723,89.0319,300.0939,357.2169,2.7910,0,U,69327,999,266,-.17451865E-4,-.2E-6,0
SZ-22 MODULE,2025-272C,2026-06-19T17:40:02.806176,15.60302451,.00062766,41.4804,306.6118,109.5394,250.6123,0,U,69328,999,372,.21498725E-3,.17804E-3,0
STARLINK-37733,2026-122A,2026-06-20T05:02:38.033952,15.69694717,.00006736,97.2838,200.8071,336.0177,24.1054,0,U,69329,999,263,-.40822813E-2,-.457476E-2,0
STARLINK-37772,2026-122B,2026-06-20T06:00:02.000160,15.72285533,.0001575,97.2847,200.8653,83.4808,179.7085,0,U,69330,999,379,-.23344798E-1,-.2669354E-1,0
STARLINK-37768,2026-122C,2026-06-20T06:00:02.000160,15.58920428,.00021079,97.2851,200.8199,70.6791,80.0464,0,U,69331,999,379,-.37350194E-1,-.2515826E-1,0
STARLINK-37833,2026-122D,2026-06-20T06:00:02.000160,15.66267022,.00013055,97.2849,200.8539,103.8786,136.8939,0,U,69332,999,379,-.14663127E-1,-.1342683E-1,0
STARLINK-37818,2026-122E,2026-06-20T06:00:02.000160,15.65925906,.0001985,97.2850,200.8441,90.0098,124.3127,0,U,69333,999,384,-.29446663E-1,-.2597482E-1,0
STARLINK-37868,2026-122F,2026-06-20T06:00:02.000160,15.69520014,.00016859,97.2852,200.8798,86.1795,204.4369,0,U,69334,999,384,-.11219894E-1,-.1190068E-1,0
STARLINK-37877,2026-122G,2026-06-20T06:00:02.000160,15.58682722,.00017823,97.2850,200.8128,62.6774,77.2908,0,U,69335,999,384,-.37852105E-1,-.2524869E-1,0
STARLINK-37791,2026-122H,2026-06-20T06:00:02.000160,15.65883521,.00016069,97.2850,200.8650,90.5941,175.0800,0,U,69336,999,384,-.29653596E-1,-.2608941E-1,0
STARLINK-37765,2026-122J,2026-06-20T06:01:13.302624,15.78476610,.0003977,97.2834,200.9053,0.3862,359.7407,0,U,69337,999,264,-.398174E-2,-.638692E-2,0
STARLINK-37788,2026-122K,2026-06-20T06:00:02.000160,15.54639132,.00015917,97.2853,200.8144,72.1770,67.7839,0,U,69338,999,384,-.15266715E-1,-.915815E-2,0
STARLINK-37743,2026-122L,2026-06-20T06:00:02.000160,15.64369544,.00015964,97.2853,200.8588,105.2206,147.7111,0,U,69339,999,384,-.31539041E-1,-.2611008E-1,0
STARLINK-37780,2026-122M,2026-06-20T06:00:02.000160,15.69818978,.00013265,97.2851,200.8805,104.1118,197.7343,0,U,69340,999,389,-.25569507E-1,-.263894E-1,0
STARLINK-37781,2026-122N,2026-06-20T06:00:02.000160,15.57072801,.00018221,97.2851,200.8090,64.1770,62.6107,0,U,69341,999,384,-.1965543E-1,-.1288327E-1,0
STARLINK-37782,2026-122P,2026-06-20T06:00:02.000160,15.72624987,.00013317,97.2848,200.9139,63.5485,314.0390,0,U,69342,999,384,-.22544601E-1,-.2622452E-1,0
